[{"OBJECT_NAME":"STARLINK-4311","OBJECT_ID":"2022-077V","EPOCH":"2026-03-09T11:36:21.860640","MEAN_MOTION":15.01260818,"ECCENTRICITY":0.00011235,"INCLINATION":97.6013,"RA_OF_ASC_NODE":250.0187,"ARG_OF_PERICENTER":172.2204,"MEAN_ANOMALY":187.9038,"EPHEMERIS_TYPE":0,"CLASSIFICATION_TYPE":"U","NORAD_CAT_ID":53062,"ELEMENT_SET_NO":999,"REV_AT_EPOCH":20088,"BSTAR":-1.4421516e-5,"MEAN_MOTION_DOT":-2.43e-6,"MEAN_MOTION_DDOT":0},{"OBJECT_NAME":"COSMOS 2151","OBJECT_ID":"1991-042A","EPOCH":"2026-03-09T21:12:10.736640","MEAN_MOTION":15.00104908,"ECCENTRICITY":0.00139956,"INCLINATION":82.493,"RA_OF_ASC_NODE":83.4892,"ARG_OF_PERICENTER":63.3058,"MEAN_ANOMALY":296.9597,"EPHEMERIS_TYPE":0,"CLASSIFICATION_TYPE":"U","NORAD_CAT_ID":21422,"ELEMENT_SET_NO":999,"REV_AT_EPOCH":86322,"BSTAR":0.00015116122,"MEAN_MOTION_DOT":1.915e-5,"MEAN_MOTION_DDOT":0}]
